{"type":"FeatureCollection","metadata":{"town":"Derry","source_urls":["https://nhgeodata.unh.edu/hosting/rest/services/Hosted/CAD_ParcelMosaic/FeatureServer/1","https://gis.vgsi.com/derrynh/"],"scrape_date":"2026-08-19T21:46:45.388Z","geometry_source":"https://nhgeodata.unh.edu/hosting/rest/services/Hosted/CAD_ParcelMosaic/FeatureServer/1","assessment_source":"https://gis.vgsi.com/derrynh/","join_key":"displayid = normalized Vision MBLU","feature_count":0,"gis_feature_count":11772,"assessor_record_count":12013,"matched_count":0,"unmatched_gis_count":11533,"unmatched_assessor_count":12013},"features":[]}