{"type":"FeatureCollection","metadata":{"town":"Charlestown","source_urls":["https://nhgeodata.unh.edu/hosting/rest/services/Hosted/CAD_ParcelMosaic/FeatureServer/1","https://gis.vgsi.com/charlestownnh/"],"scrape_date":"2026-08-19T21:25:47.101Z","geometry_source":"https://nhgeodata.unh.edu/hosting/rest/services/Hosted/CAD_ParcelMosaic/FeatureServer/1","assessment_source":"https://gis.vgsi.com/charlestownnh/","join_key":"displayid = normalized Vision MBLU","feature_count":0,"gis_feature_count":2278,"assessor_record_count":2652,"matched_count":0,"unmatched_gis_count":2242,"unmatched_assessor_count":2652},"features":[]}