{"features":[{"geometry":{"type":"Polygon","coordinates":[[[-71.64577858853326,43.04076084926276],[-71.64582430989051,43.04077631446074],[-71.64587001705003,43.04076484197297],[-71.64597504977006,43.04073128276953],[-71.64608287627685,43.04070288736195],[-71.64619302406973,43.040679778981634],[-71.64630501329442,43.04066206015622],[-71.6464183542897,43.04064980730843],[-71.64653255126728,43.04064307435737],[-71.64664710476667,43.040641890018726],[-71.64752854107644,43.0399004974387],[-71.64835984781116,43.036386687437634],[-71.64827876836584,43.0365540895678],[-71.64817101840373,43.03678832609181],[-71.64805219166284,43.03700517205847],[-71.64787796472378,43.03718333647442],[-71.6476828601729,43.03723447732729],[-71.64739814606945,43.03718593382593],[-71.64717908678087,43.03699714482902],[-71.64707819152933,43.036761114794125],[-71.64698795438932,43.036557130861205],[-71.64682633222645,43.036430284750736],[-71.64659550034227,43.03626462252395],[-71.64640496340468,43.03619022383778],[-71.64649136920718,43.03660831107991],[-71.64688343903136,43.03843088889314],[-71.64541071800747,43.03866577256416],[-71.64563243963173,43.039062840179774],[-71.6460478750488,43.0398068023709],[-71.64586683627007,43.0398449405419],[-71.64618477722206,43.040384194119916],[-71.64566447201491,43.04050198194483],[-71.64575235298321,43.04072781443896],[-71.64577858853326,43.04076084926276]]],"crs":null},"id":654984,"type":"Feature","properties":{"town":"Weare","name":"CamaID: 412-141-0005","pid":"000412000141000005","streetaddress":"11 JENNIFER LANE","townid":"4224","displayid":"412-141-0005","nh_gis_id":"064224-000412000141000005","objectid":654984}},{"geometry":{"type":"Polygon","coordinates":[[[-71.64664710476667,43.040641890018726],[-71.64677008734247,43.04064681290178],[-71.64689228368611,43.0406581303431],[-71.64701307410274,43.040675786428075],[-71.64713185117908,43.04069969014],[-71.64724801241705,43.04072972165985],[-71.64736097250618,43.040765729667875],[-71.64747016086825,43.04080753134268],[-71.65109192586172,43.03947694474874],[-71.65113128007503,43.03942741628754],[-71.65127056844344,43.039277036931885],[-71.65136751843922,43.0390747549862],[-71.65144001747092,43.038792019448714],[-71.65136160498713,43.038495303891324],[-71.65129630656556,43.03823924183905],[-71.65113548039541,43.037905729430804],[-71.65100847584927,43.03759960287388],[-71.65094337601735,43.03743555810505],[-71.65088335516205,43.03727859475688],[-71.65043839004984,43.03654398220156],[-71.65019581530726,43.03630490924024],[-71.64996147192463,43.03619142553857],[-71.64948003979083,43.03615971497604],[-71.6493945721335,43.0361375686501],[-71.64931676257608,43.036139074575274],[-71.64909033791727,43.036119427956095],[-71.64904222220422,43.03611820442382],[-71.64897694573939,43.03611432000872],[-71.6489389324889,43.03610653573015],[-71.64892114144291,43.036106568980394],[-71.64888630227603,43.036109129968345],[-71.6487573923014,43.03613169162037],[-71.6487011367226,43.03614397467182],[-71.64851253624887,43.03624110152254],[-71.64836742761304,43.036371039136945],[-71.64835984781116,43.036386687437634],[-71.64752854107644,43.0399004974387],[-71.64664710476667,43.040641890018726]]],"crs":null},"id":654985,"type":"Feature","properties":{"town":"Weare","name":"CamaID: 412-141-0004","pid":"000412000141000004","streetaddress":"17 JENNIFER LANE","townid":"4224","displayid":"412-141-0004","nh_gis_id":"064224-000412000141000004","objectid":654985}},{"geometry":{"type":"Polygon","coordinates":[[[-71.65354057854735,43.04062583518833],[-71.65487432321743,43.04082390580118],[-71.6548044981,43.04018963334442],[-71.6536212348786,43.040252681436804],[-71.6536153140642,43.040325507431746],[-71.65360127896588,43.040397732984665],[-71.65354057854735,43.04062583518833]]],"crs":null},"id":654986,"type":"Feature","properties":{"town":"Weare","name":"CamaID: 412-197-0028","pid":"000412000197000028","streetaddress":"47 ELANOR WAY","townid":"4224","displayid":"412-197-0028","nh_gis_id":"064224-000412000197000028","objectid":654986}},{"geometry":{"type":"Polygon","coordinates":[[[-71.75681959693411,43.04034569418086],[-71.75688317708293,43.04052762296578],[-71.75693869310597,43.04071096594053],[-71.75698608697402,43.04089553142577],[-71.75892627514867,43.040612743782],[-71.75880602552454,43.040118352454776],[-71.75681959693411,43.04034569418086]]],"crs":null},"id":654987,"type":"Feature","properties":{"town":"Weare","name":"CamaID: 410-032-0000","pid":"000410000032000000","streetaddress":"71 BARTLETT DRIVE","townid":"4224","displayid":"410-032-0000","nh_gis_id":"064224-000410000032000000","objectid":654987}},{"geometry":{"type":"Polygon","coordinates":[[[-71.67020601049425,43.04092273903785],[-71.67022227319579,43.04093369903466],[-71.67054015658529,43.040629142315815],[-71.67128405340105,43.04024519196577],[-71.67097726193485,43.04012221874611],[-71.67038428255434,43.03999628649347],[-71.6703426813659,43.04008123083622],[-71.67013425395221,43.04004801017135],[-71.6690684254567,43.04017033499259],[-71.66916721806271,43.04023827160747],[-71.66951237032843,43.040459715014435],[-71.67020601049425,43.04092273903785]]],"crs":null},"id":654988,"type":"Feature","properties":{"town":"Weare","name":"CamaID: 412-246-0000","pid":"000412000246000000","streetaddress":"289 SOUTH STARK HIGHWAY","townid":"4224","displayid":"412-246-0000","nh_gis_id":"064224-000412000246000000","objectid":654988}}],"type":"FeatureCollection","properties":{"exceededTransferLimit":true}}