{"type":"FeatureCollection","metadata":{"town":"Greenland","source_urls":["https://nhgeodata.unh.edu/hosting/rest/services/Hosted/CAD_ParcelMosaic/FeatureServer/1","https://gis.vgsi.com/greenlandnh/"],"scrape_date":"2026-08-19T21:51:30.332Z","geometry_source":"https://nhgeodata.unh.edu/hosting/rest/services/Hosted/CAD_ParcelMosaic/FeatureServer/1","assessment_source":"https://gis.vgsi.com/greenlandnh/","join_key":"displayid = normalized Vision MBLU","feature_count":0,"gis_feature_count":1657,"assessor_record_count":1951,"matched_count":0,"unmatched_gis_count":1622,"unmatched_assessor_count":1951},"features":[]}